GLOBALSTAR M035         
1 25851U 99037A   24250.50765156  .00000006  00000+0  26144-2 0  9991
2 25851  51.9987 327.5988 0013536 240.8813 216.6320 11.04532537 64919
GLOBALSTAR M032         
1 25852U 99037B   24250.19335273  .00000026  00000+0  29705-2 0  9998
2 25852  51.9933 173.0861 0010892  47.3013 312.8702 11.19062383102996
GLOBALSTAR M051         
1 25853U 99037C   24250.60054744 -.00000028  00000+0  10835-2 0  9993
2 25853  51.9836   5.0069 0001870  81.7960 278.3062 11.42199383 99988
GLOBALSTAR M030         
1 25854U 99037D   24250.24951943 -.00000087  00000+0 -25920-3 0  9999
2 25854  51.9862 190.0138 0003495 262.1564  97.8856 11.55100271117236
GLOBALSTAR M048         
1 25872U 99041A   24250.43567103 -.00000053  00000+0  46334-3 0  9990
2 25872  51.9364 289.4724 0013268  53.9333  48.7878 11.33848911 92794
GLOBALSTAR M026         
1 25873U 99041B   24250.56046502 -.00000088  00000+0 -89023-3 0  9991
2 25873  52.0005  88.4160 0001836 107.2822 267.3121 11.06834130117082
GLOBALSTAR M043         
1 25874U 99041C   24250.56501198 -.00000114  00000+0 -13549-2 0  9998
2 25874  51.9438  25.4996 0012960 184.2505 257.2710 11.25686824 90934
GLOBALSTAR M028         
1 25875U 99041D   24250.58023804 -.00000073  00000+0  17604-3 0  9994
2 25875  51.9641 318.7214 0063732 175.2507 184.8970 12.50563076154696
